[{"OBJECT_NAME":"SAUDICOMSAT 7","OBJECT_ID":"2007-012C","EPOCH":"2026-03-09T21:01:06.645504","MEAN_MOTION":14.65971013,"ECCENTRICITY":0.00564818,"INCLINATION":98.3681,"RA_OF_ASC_NODE":41.0395,"ARG_OF_PERICENTER":146.597,"MEAN_ANOMALY":213.8816,"EPHEMERIS_TYPE":0,"CLASSIFICATION_TYPE":"U","NORAD_CAT_ID":31119,"ELEMENT_SET_NO":999,"REV_AT_EPOCH":788,"BSTAR":0.00016617256,"MEAN_MOTION_DOT":8.78e-6,"MEAN_MOTION_DDOT":0},{"OBJECT_NAME":"NOAA 17 DEB","OBJECT_ID":"2002-032Q","EPOCH":"2026-03-07T03:49:47.955648","MEAN_MOTION":14.56309401,"ECCENTRICITY":0.00145764,"INCLINATION":98.7379,"RA_OF_ASC_NODE":44.6895,"ARG_OF_PERICENTER":224.2955,"MEAN_ANOMALY":135.7076,"EPHEMERIS_TYPE":0,"CLASSIFICATION_TYPE":"U","NORAD_CAT_ID":48175,"ELEMENT_SET_NO":999,"REV_AT_EPOCH":25998,"BSTAR":0.0032224831,"MEAN_MOTION_DOT":0.00014271,"MEAN_MOTION_DDOT":0}]
